[{"OBJECT_NAME":"ONEWEB-0193","OBJECT_ID":"2021-031AE","EPOCH":"2026-03-09T17:39:38.141568","MEAN_MOTION":13.14503398,"ECCENTRICITY":0.0001396,"INCLINATION":87.8988,"RA_OF_ASC_NODE":309.544,"ARG_OF_PERICENTER":94.9211,"MEAN_ANOMALY":265.2078,"EPHEMERIS_TYPE":0,"CLASSIFICATION_TYPE":"U","NORAD_CAT_ID":48238,"ELEMENT_SET_NO":999,"REV_AT_EPOCH":23524,"BSTAR":0.00078416939,"MEAN_MOTION_DOT":3.04e-6,"MEAN_MOTION_DDOT":0},{"OBJECT_NAME":"UNKNOWN","OBJECT_ID":"","EPOCH":"2026-03-07T04:31:16.399200","MEAN_MOTION":13.41193905,"ECCENTRICITY":0.0238397,"INCLINATION":99.7799,"RA_OF_ASC_NODE":151.8941,"ARG_OF_PERICENTER":35.0928,"MEAN_ANOMALY":355.2182,"EPHEMERIS_TYPE":0,"CLASSIFICATION_TYPE":"U","NORAD_CAT_ID":82529,"ELEMENT_SET_NO":999,"REV_AT_EPOCH":60106,"BSTAR":0.00063177,"MEAN_MOTION_DOT":3.72e-6,"MEAN_MOTION_DDOT":0}]
